[{"OBJECT_NAME":"GONETS-M 3","OBJECT_ID":"2012-041B","EPOCH":"2026-03-09T21:31:47.884800","MEAN_MOTION":12.44898672,"ECCENTRICITY":0.00152291,"INCLINATION":82.4737,"RA_OF_ASC_NODE":127.0145,"ARG_OF_PERICENTER":278.4895,"MEAN_ANOMALY":81.446,"EPHEMERIS_TYPE":0,"CLASSIFICATION_TYPE":"U","NORAD_CAT_ID":38734,"ELEMENT_SET_NO":999,"REV_AT_EPOCH":61831,"BSTAR":0.00044489153,"MEAN_MOTION_DOT":7.3e-7,"MEAN_MOTION_DDOT":0},{"OBJECT_NAME":"COSMOS 1823","OBJECT_ID":"1987-020A","EPOCH":"2026-03-09T18:05:50.332128","MEAN_MOTION":12.41377954,"ECCENTRICITY":0.00279144,"INCLINATION":73.6037,"RA_OF_ASC_NODE":176.3323,"ARG_OF_PERICENTER":27.8467,"MEAN_ANOMALY":84.9801,"EPHEMERIS_TYPE":0,"CLASSIFICATION_TYPE":"U","NORAD_CAT_ID":17535,"ELEMENT_SET_NO":999,"REV_AT_EPOCH":76952,"BSTAR":0.00015686667,"MEAN_MOTION_DOT":4.0e-8,"MEAN_MOTION_DDOT":0}]
